{
    "links": {
        "self": "http://www.neowsapp.com/rest/v1/neo/3714487?api_key=iIulBulltgU6a56xZRHN4H3l9WmuAYTsLGpBGhQ2"
    },
    "id": "3714487",
    "neo_reference_id": "3714487",
    "name": "(2015 DU223)",
    "designation": "2015 DU223",
    "nasa_jpl_url": "http://ssd.jpl.nasa.gov/sbdb.cgi?sstr=3714487",
    "absolute_magnitude_h": 22.7,
    "estimated_diameter": {
        "kilometers": {
            "estimated_diameter_min": 0.0766575574,
            "estimated_diameter_max": 0.1714115092
        },
        "meters": {
            "estimated_diameter_min": 76.6575573531,
            "estimated_diameter_max": 171.4115092306
        },
        "miles": {
            "estimated_diameter_min": 0.0476327831,
            "estimated_diameter_max": 0.1065101409
        },
        "feet": {
            "estimated_diameter_min": 251.5011804664,
            "estimated_diameter_max": 562.3737359442
        }
    },
    "is_potentially_hazardous_asteroid": false,
    "close_approach_data": [
        {
            "close_approach_date": "2015-01-26",
            "close_approach_date_full": "2015-Jan-26 21:22",
            "epoch_date_close_approach": 1422307320000,
            "relative_velocity": {
                "kilometers_per_second": "9.5362464095",
                "kilometers_per_hour": "34330.487074216",
                "miles_per_hour": "21331.6295934205"
            },
            "miss_distance": {
                "astronomical": "0.1678902089",
                "lunar": "65.3092912621",
                "kilometers": "25116017.645295043",
                "miles": "15606369.6878078734"
            },
            "orbiting_body": "Earth"
        }
    ],
    "orbital_data": {
        "orbit_id": "3",
        "orbit_determination_date": "2017-04-06 08:35:15",
        "first_observation_date": "2015-02-23",
        "last_observation_date": "2015-03-27",
        "data_arc_in_days": 32,
        "observations_used": 12,
        "orbit_uncertainty": "7",
        "minimum_orbit_intersection": ".0784146",
        "jupiter_tisserand_invariant": "3.338",
        "epoch_osculation": "2459000.5",
        "eccentricity": ".593840497110966",
        "semi_major_axis": "2.263978409828988",
        "inclination": "11.73512267922348",
        "ascending_node_longitude": "352.7637607024532",
        "orbital_period": "1244.24770473817",
        "perihelion_distance": ".9195363454876474",
        "perihelion_argument": "116.3316007699897",
        "aphelion_distance": "3.608420474170328",
        "perihelion_time": "2459522.583837047571",
        "mean_anomaly": "208.944723288297",
        "mean_motion": ".2893314559706227",
        "equinox": "J2000",
        "orbit_class": {
            "orbit_class_type": "APO",
            "orbit_class_description": "Near-Earth asteroid orbits which cross the Earth’s orbit similar to that of 1862 Apollo",
            "orbit_class_range": "a (semi-major axis) > 1.0 AU; q (perihelion) < 1.017 AU"
        }
    },
    "is_sentry_object": false
}